#dP2024 12 10  0  0  0.00000000      96 __u+U IGS20 FIT  IAC
## 2344 172800.00000000   900.00000000 60654 0.0000000000000
+   52   G02G03G04G05G06G07G08G09G10G11G12G13G14G15G16G17G18
+        G19G20G21G22G23G24G25G26G27G28G29G30G31G32R01R02R03
+        R04R05R07R08R09R11R12R14R15R16R17R18R19R20R21R22R24
+        R26  0  0  0  0  0  0  0  0  0  0  0  0  0  0  0  0
+          0  0  0  0  0  0  0  0  0  0  0  0  0  0  0  0  0
++         5  6  5  6  5  5  6  5  6  6  5  5  6  5  5  7  6
++         5  6  6  6  6  5  5  6  6  4  6  5  7  4  7  5  5
++         6  6  6  6  7  6  6  5  6  7  5  6  7  7  6  6  5
++         5  0  0  0  0  0  0  0  0  0  0  0  0  0  0  0  0
++         0  0  0  0  0  0  0  0  0  0  0  0  0  0  0  0  0
%c M  cc GPS ccc cccc cccc cccc cccc ccccc ccccc ccccc ccccc
%c cc cc ccc ccc cccc cccc cccc cccc ccccc ccccc ccccc ccccc
%f  0.0000000  0.000000000  0.00000000000  0.000000000000000
%f  0.0000000  0.000000000  0.00000000000  0.000000000000000
%i    0    0    0    0      0      0      0      0         0
%i    0    0    0    0      0      0      0      0         0
/* INFORMATION & ANALYSIS CENTER (IAC)      ULTRA-RAPID DATA
/* S/V CLOCKS ARE ALIGNED TO GNSS TIME                      
/* G:C1WC2W R:C1PC2P E:C1XC5X C:C2IC6I J:C1CC2S             
/* PCV:IGS20_2317 OL/AL:FES2004  NONE     YN ORB:CoN CLK:CoN
*  2024 12 10  2 30  0.00000000
PG02  20799.801791  10282.088871  13729.262809   -295.596704
PG03  16009.138234  -1389.811346  20958.694482    620.871815
PG04  26463.941213    830.371604   2993.665699    493.328487
PG05  -9087.600463 -14431.148968 -20521.383718   -195.545006
PG06  -2074.273163 -21472.216249  15489.250130    -32.414009
PG07  15014.743597  -4619.459045 -20937.435361    -16.178016
PG08  21882.255873   7226.791287 -13716.551914    434.723890
PG09  25082.494902  -6776.683132  -5770.408445    480.406016
PG10  -9884.073080  24357.037827   2379.610359   -228.248319
PG11 -11782.560626 -23566.881343   3639.756005   -752.439404
PG12 -15041.655061  -3575.039451  21306.522097   -557.397309
PG13 -14327.452818 -13357.577794 -18281.222993    689.363521
PG14  12780.745620 -23080.171133  -1560.821392    557.025587
PG15 -22576.554001  -4866.685557 -13767.401948    237.721750
PG16   4107.979830  18703.338181 -18561.739729   -107.201041
PG17  13967.040719 -13288.412443  18768.691749    525.541862
PG18 -13046.002434   7289.438054 -21931.975533   -660.457797
PG19   2499.872536 -14937.516648  21651.327917    572.230537
PG20  -2651.848400 -23450.920596 -12238.550766    368.021441
PG21  20668.122267  15786.871320   8096.488490     95.344575
PG22   8620.509263 -24401.380087   7047.937061    -85.327250
PG23 -16075.620488  17631.060359 -11378.357970    380.368011
PG24 -20934.268569 -12391.612268  10655.002734   -474.681828
PG25 -17566.144079  11048.552635  16070.366610    498.260075
PG26  -2025.260500  24759.242347  -9015.436216     -3.196533
PG27  11877.681073  13138.380489 -20222.393114    -34.309101
PG28    870.128728  20696.067973  16608.841694   -503.736353
PG29 -25638.394347   4211.925348  -5865.197405   -557.212753
PG30   6365.757026 -16336.107628 -19729.842285   -264.604057
PG31   8727.866269  23490.268386   7973.351480   -220.270387
PG32  -9352.400471  14879.107221  20077.946434   -561.469128
PR01  19700.099578 -14142.678236  -7900.133236    107.229329
PR02   6308.087326 -13430.079968 -20726.222187    -39.207123
PR03 -11655.112204  -5810.466177 -21874.137084    112.946823
PR04 -22480.117106   4631.802016 -11077.777843    267.733619
PR05 -21460.976847  12548.528445   5651.800428    141.954352
PR07  12105.208159   5570.922780  21801.816621     96.637013
PR08  22569.160629  -4911.909408  10931.362705     -6.133686
PR09  -1023.824212  25527.813326   -476.660253    225.333656
PR11  10715.646715   2929.228611 -22956.604429      5.067072
PR12   9136.747401 -17560.033219 -16078.836886     48.227710
PR14  -6635.735150 -18476.337736  16281.687360     27.389397
PR15 -11027.263339   -971.841310  22993.480908     73.311826
PR16  -9038.892326  17462.462407  16272.879200     31.492446
PR17 -19146.717285 -16202.555964   4779.836231    147.179865
PR18 -20986.464148  -8800.587017 -11451.884170    176.030304
PR19 -13853.232438   1386.217281 -21366.620223   -301.355999
PR20   4927.658154  15145.619252 -19921.205847   -123.034586
PR21  18463.431624  16573.919063  -5851.327692   -158.249181
PR22  20677.575812   8231.648363  12505.771525    -36.493053
PR24  -5835.441767 -15395.241045  19514.688680    -83.437433
PR26  21884.851489  -3938.275113  12502.830190   -132.883511
*  2024 12 10  2 45  0.00000000
PG02  21577.347999  11405.758757  11390.654635   -295.588879
PG03  15059.684799    890.919238  21681.266726    620.880032
PG04  25984.763198   1092.359142   5793.172521    493.334062
PG05  -8209.648418 -16495.015625 -19282.842001   -195.545989
PG06   -887.961955 -20021.025497  17443.216033    -32.440090
PG07  16437.200664  -2606.102543 -20262.718040    -16.176780
PG08  20274.671076   7655.796031 -15775.485925    434.732069
PG09  25601.613951  -6601.583298  -2977.975367    480.420723
PG10 -10104.151302  24348.757508   -545.945277   -228.262043
PG11 -11273.781373 -23222.078024   6424.860358   -752.439886
PG12 -13909.706119  -5821.448285  21579.002714   -557.399184
PG13 -12204.988908 -13393.365063 -19734.630332    689.364915
PG14  12923.955078 -22632.200559  -4370.714326    557.032504
PG15 -21081.693235  -5506.604400 -15809.701223    237.725916
PG16   3021.984523  20368.000911 -16871.711943   -107.192349
PG17  15941.530925 -13278.526322  17108.624477    525.527675
PG18 -14482.150014   5250.670559 -21631.700269   -660.457455
PG19   4986.002538 -14909.937239  21200.883638    572.234157
PG20  -2146.978843 -24635.490518  -9794.077304    368.021267
PG21  21023.518139  16417.399689   5440.014206     95.343565
PG22   9100.869918 -24822.642937   4308.776090    -85.329861
PG23 -15696.800852  16221.369700 -13767.298831    380.374971
PG24 -21488.221130 -13414.405877   8164.677953   -474.679202
PG25 -16986.556270   9111.169512  17802.576773    498.259720
PG26  -2629.007774  25478.827836  -6391.769725     -3.209012
PG27   9606.564359  13486.343575 -21153.404000    -34.308845
PG28   -490.462809  19221.701666  18307.914338   -503.746227
PG29 -26150.392784   4013.547221  -3061.462987   -557.210156
PG30   7865.034315 -14519.679816 -20608.206893   -264.596856
PG31   7862.167424  22751.589058  10556.775691   -220.269626
PG32 -11534.117350  15033.848108  18751.875687   -561.463756
PR01  20318.194092 -14647.345383  -4810.520810    107.230555
PR02   8477.162215 -14607.299915 -19102.113342    -39.206598
PR03  -9175.649057  -7030.137439 -22685.608162    112.947425
PR04 -21030.765036   4084.663971 -13799.996952    267.734780
PR05 -21830.793964  12931.259146   2470.424170    141.955003
PR07   9645.454392   6766.491882  22669.890953     96.637561
PR08  21159.247498  -4360.324310  13656.239573     -6.133566
PR09   -925.126128  25394.656755   2698.653578    225.335519
PR11  10622.832476   5731.850401 -22467.394955      5.065896
PR12   8949.868362 -15448.323413 -18206.954890     48.228080
PR14  -6653.223535 -20337.922836  13875.657383     27.390152
PR15 -10903.829890  -3788.153497  22759.044180     73.311832
PR16  -8843.007224  15331.961560  18387.261166     31.493252
PR17 -18595.673896 -15622.625186   7883.753624    147.182431
PR18 -22112.688057  -9347.473228  -8528.978769    176.032157
PR19 -15977.647884    -28.580660 -19877.796590   -301.356915
PR20   2918.718691  13561.867575 -21398.622881   -123.035255
PR21  17807.549183  15910.590536  -8919.408139   -158.252639
PR22  21865.185468   8915.733944   9694.322997    -36.504596
PR24  -3786.145255 -13968.430877  21034.459641    -83.439146
PR26  20311.460329  -3279.205265  15086.402752   -132.883070
EOF
